YAOGAN-36 04C           
1 54750U 22171E   26068.78871400  .00016196  00000+0  54592-3 0  9991
2 54750  34.9797  96.6578 0006685 275.3761  84.6192 15.29852307180246
STARLINK-34612          
1 64773U 25147U   26068.74540446  .00032472  00000+0  11023-2 0  9998
2 64773  53.1590 242.2542 0001348  93.9786 266.1369 15.30242285 38760
