[{"OBJECT_NAME":"YAOGAN-36 04C","OBJECT_ID":"2022-171E","EPOCH":"2026-03-09T18:55:44.889600","MEAN_MOTION":15.29852307,"ECCENTRICITY":0.00066848,"INCLINATION":34.9797,"RA_OF_ASC_NODE":96.6578,"ARG_OF_PERICENTER":275.3761,"MEAN_ANOMALY":84.6192,"EPHEMERIS_TYPE":0,"CLASSIFICATION_TYPE":"U","NORAD_CAT_ID":54750,"ELEMENT_SET_NO":999,"REV_AT_EPOCH":18024,"BSTAR":0.00054591902,"MEAN_MOTION_DOT":0.00016196,"MEAN_MOTION_DDOT":0},{"OBJECT_NAME":"STARLINK-34612","OBJECT_ID":"2025-147U","EPOCH":"2026-03-09T17:53:22.946208","MEAN_MOTION":15.30242285,"ECCENTRICITY":0.00013478,"INCLINATION":53.159,"RA_OF_ASC_NODE":242.2542,"ARG_OF_PERICENTER":93.9786,"MEAN_ANOMALY":266.1369,"EPHEMERIS_TYPE":0,"CLASSIFICATION_TYPE":"U","NORAD_CAT_ID":64773,"ELEMENT_SET_NO":999,"REV_AT_EPOCH":3876,"BSTAR":0.0011022644,"MEAN_MOTION_DOT":0.00032472,"MEAN_MOTION_DDOT":0}]
